[{"OBJECT_NAME":"SITRO-AIS 24","OBJECT_ID":"2024-199G","EPOCH":"2026-03-09T22:55:13.311552","MEAN_MOTION":14.95574575,"ECCENTRICITY":0.00134035,"INCLINATION":97.3325,"RA_OF_ASC_NODE":273.3822,"ARG_OF_PERICENTER":42.6191,"MEAN_ANOMALY":317.6069,"EPHEMERIS_TYPE":0,"CLASSIFICATION_TYPE":"U","NORAD_CAT_ID":61741,"ELEMENT_SET_NO":999,"REV_AT_EPOCH":11705,"BSTAR":0.00037285708,"MEAN_MOTION_DOT":4.091e-5,"MEAN_MOTION_DDOT":0},{"OBJECT_NAME":"TRANSIT 2A","OBJECT_ID":"1960-007A","EPOCH":"2026-03-09T21:46:25.770144","MEAN_MOTION":14.35888263,"ECCENTRICITY":0.02545561,"INCLINATION":66.6918,"RA_OF_ASC_NODE":262.7942,"ARG_OF_PERICENTER":232.6737,"MEAN_ANOMALY":125.0927,"EPHEMERIS_TYPE":0,"CLASSIFICATION_TYPE":"U","NORAD_CAT_ID":45,"ELEMENT_SET_NO":999,"REV_AT_EPOCH":36579,"BSTAR":0.00012468852,"MEAN_MOTION_DOT":4.14e-6,"MEAN_MOTION_DDOT":0}]
